{"type": "FeatureCollection", "features": [ {"type": "Feature", "properties": {"norad_id": 31025, "name": "FENGYUN 1C DEB", "group": "fengyun-1c-debris", "lat": 36.07101107940351, "lon": -36.30046184054238, "alt_km": 696.1793927438239, "timestamp": "2025-12-05T14:45:15.579063+00:00", "meta": {"OBJECT_NAME": "FENGYUN 1C DEB", "OBJECT_ID": "1999-025BDT", "EPOCH": "2025-12-03T05:06:44.299008", "MEAN_MOTION": 14.20496018, "ECCENTRICITY": 0.0173717, "INCLINATION": 98.5813, "RA_OF_ASC_NODE": 327.6823, "ARG_OF_PERICENTER": 40.2531, "MEAN_ANOMALY": 321.1361, "EPHEMERIS_TYPE": 0, "CLASSIFICATION_TYPE": "U", "NORAD_CAT_ID": 31025, "ELEMENT_SET_NO": 999, "REV_AT_EPOCH": 64230, "BSTAR": 0.00089509, "MEAN_MOTION_DOT": 2.194e-05, "MEAN_MOTION_DDOT": 0}, "tle": {"line1": "1 31025U 99025BDT 25337.21301272  .00002194  00000+0  89509-3 0  9993", "line2": "2 31025  98.5813 327.6823 0173717  40.2531 321.1361 14.20496018642306"}}, "geometry": {"type": "Point", "coordinates": [-36.30046184054238, 36.07101107940351]}}, {"type": "Feature", "properties": {"norad_id": 31026, "name": "FENGYUN 1C DEB", "group": "fengyun-1c-debris", "lat": -80.43379707589584, "lon": -17.887554373629836, "alt_km": 927.5370480375896, "timestamp": "2025-12-05T14:45:15.579075+00:00", "meta": {"OBJECT_NAME": "FENGYUN 1C DEB", "OBJECT_ID": "1999-025BDU", "EPOCH": "2025-12-04T01:16:43.170816", "MEAN_MOTION": 13.83393763, "ECCENTRICITY": 0.01339385, "INCLINATION": 98.7781, "RA_OF_ASC_NODE": 274.1897, "ARG_OF_PERICENTER": 206.1172, "MEAN_ANOMALY": 213.9229, "EPHEMERIS_TYPE": 0, "CLASSIFICATION_TYPE": "U", "NORAD_CAT_ID": 31026, "ELEMENT_SET_NO": 999, "REV_AT_EPOCH": 67906, "BSTAR": 0.0002485341, "MEAN_MOTION_DOT": 2.52e-06, "MEAN_MOTION_DDOT": 0}, "tle": {"line1": "1 31026U 99025BDU 25338.05327744  .00000252  00000+0  24853-3 0  9993", "line2": "2 31026  98.7781 274.1897 0133938 206.1172 213.9229 13.83393763679060"}}, "geometry": {"type": "Point", "coordinates": [-17.887554373629836, -80.43379707589584]}}, {"type": "Feature", "properties": {"norad_id": 31028, "name": "FENGYUN 1C DEB", "group": "fengyun-1c-debris", "lat": 43.74719230384763, "lon": 100.36065431242943, "alt_km": 1049.1236565975878, "timestamp": "2025-12-05T14:45:15.579085+00:00", "meta": {"OBJECT_NAME": "FENGYUN 1C DEB", "OBJECT_ID": "1999-025BDW", "EPOCH": "2025-11-26T01:54:24.970752", "MEAN_MOTION": 13.89048666, "ECCENTRICITY": 0.01654825, "INCLINATION": 98.7043, "RA_OF_ASC_NODE": 263.016, "ARG_OF_PERICENTER": 340.0889, "MEAN_ANOMALY": 19.3862, "EPHEMERIS_TYPE": 0, "CLASSIFICATION_TYPE": "U", "NORAD_CAT_ID": 31028, "ELEMENT_SET_NO": 999, "REV_AT_EPOCH": 61772, "BSTAR": 0.00043609826, "MEAN_MOTION_DOT": 5.49e-06, "MEAN_MOTION_DDOT": 0}, "tle": {"line1": "1 31028U 99025BDW 25330.07945568  .00000549  00000+0  43610-3 0  9990", "line2": "2 31028  98.7043 263.0160 0165482 340.0889  19.3862 13.89048666617726"}}, "geometry": {"type": "Point", "coordinates": [100.36065431242943, 43.74719230384763]}}, {"type": "Feature", "properties": {"norad_id": 31029, "name": "FENGYUN 1C DEB", "group": "fengyun-1c-debris", "lat": -23.541824446515257, "lon": -119.7666842106465, "alt_km": 812.8033022791114, "timestamp": "2025-12-05T14:45:15.579095+00:00", "meta": {"OBJECT_NAME": "FENGYUN 1C DEB", "OBJECT_ID": "1999-025BDX", "EPOCH": "2025-12-03T04:57:42.736896", "MEAN_MOTION": 14.34292633, "ECCENTRICITY": 0.00900082, "INCLINATION": 98.8585, "RA_OF_ASC_NODE": 233.8702, "ARG_OF_PERICENTER": 101.5229, "MEAN_ANOMALY": 49.0087, "EPHEMERIS_TYPE": 0, "CLASSIFICATION_TYPE": "U", "NORAD_CAT_ID": 31029, "ELEMENT_SET_NO": 999, "REV_AT_EPOCH": 97659, "BSTAR": 0.00040454122, "MEAN_MOTION_DOT": 1.143e-05, "MEAN_MOTION_DDOT": 0}, "tle": {"line1": "1 31029U 99025BDX 25337.20674464  .00001143  00000+0  40454-3 0  9991", "line2": "2 31029  98.8585 233.8702 0090008 101.5229  49.0087 14.34292633976593"}}, "geometry": {"type": "Point", "coordinates": [-119.7666842106465, -23.541824446515257]}}, {"type": "Feature", "properties": {"norad_id": 31030, "name": "FENGYUN 1C DEB", "group": "fengyun-1c-debris", "lat": 69.58707865558172, "lon": 17.060477223508936, "alt_km": 789.1572200178025, "timestamp": "2025-12-05T14:45:15.579105+00:00", "meta": {"OBJECT_NAME": "FENGYUN 1C DEB", "OBJECT_ID": "1999-025BDY", "EPOCH": "2025-12-03T22:46:46.421760", "MEAN_MOTION": 14.23615619, "ECCENTRICITY": 0.0028322, "INCLINATION": 98.7682, "RA_OF_ASC_NODE": 39.9022, "ARG_OF_PERICENTER": 108.9886, "MEAN_ANOMALY": 71.188, "EPHEMERIS_TYPE": 0, "CLASSIFICATION_TYPE": "U", "NORAD_CAT_ID": 31030, "ELEMENT_SET_NO": 999, "REV_AT_EPOCH": 96579, "BSTAR": 0.0017739316, "MEAN_MOTION_DOT": 4.017e-05, "MEAN_MOTION_DDOT": 0}, "tle": {"line1": "1 31030U 99025BDY 25337.94914840  .00004017  00000+0  17739-2 0  9991", "line2": "2 31030  98.7682  39.9022 0028322 108.9886  71.1880 14.23615619965790"}}, "geometry": {"type": "Point", "coordinates": [17.060477223508936, 69.58707865558172]}}, {"type": "Feature", "properties": {"norad_id": 31031, "name": "FENGYUN 1C DEB", "group": "fengyun-1c-debris", "lat": 36.90281860644353, "lon": 83.41811155151171, "alt_km": 811.1200778194716, "timestamp": "2025-12-05T14:45:15.579115+00:00", "meta": {"OBJECT_NAME": "FENGYUN 1C DEB", "OBJECT_ID": "1999-025BDZ", "EPOCH": "2025-12-02T14:00:02.170080", "MEAN_MOTION": 14.20954298, "ECCENTRICITY": 0.0027396, "INCLINATION": 99.0707, "RA_OF_ASC_NODE": 253.4179, "ARG_OF_PERICENTER": 216.3895, "MEAN_ANOMALY": 268.0113, "EPHEMERIS_TYPE": 0, "CLASSIFICATION_TYPE": "U", "NORAD_CAT_ID": 31031, "ELEMENT_SET_NO": 999, "REV_AT_EPOCH": 96710, "BSTAR": 0.00054735505, "MEAN_MOTION_DOT": 1.143e-05, "MEAN_MOTION_DDOT": 0}, "tle": {"line1": "1 31031U 99025BDZ 25336.58335845  .00001143  00000+0  54736-3 0  9999", "line2": "2 31031  99.0707 253.4179 0027396 216.3895 268.0113 14.20954298967102"}}, "geometry": {"type": "Point", "coordinates": [83.41811155151171, 36.90281860644353]}}, {"type": "Feature", "properties": {"norad_id": 31032, "name": "FENGYUN 1C DEB", "group": "fengyun-1c-debris", "lat": -72.31170977661169, "lon": 19.51365429274268, "alt_km": 857.2654522062485, "timestamp": "2025-12-05T14:45:15.579125+00:00", "meta": {"OBJECT_NAME": "FENGYUN 1C DEB", "OBJECT_ID": "1999-025BEA", "EPOCH": "2025-12-04T17:07:03.409824", "MEAN_MOTION": 14.02151331, "ECCENTRICITY": 0.0138704, "INCLINATION": 99.4003, "RA_OF_ASC_NODE": 347.2894, "ARG_OF_PERICENTER": 217.9288, "MEAN_ANOMALY": 197.4337, "EPHEMERIS_TYPE": 0, "CLASSIFICATION_TYPE": "U", "NORAD_CAT_ID": 31032, "ELEMENT_SET_NO": 999, "REV_AT_EPOCH": 94869, "BSTAR": 0.0023507, "MEAN_MOTION_DOT": 3.865e-05, "MEAN_MOTION_DDOT": 0}, "tle": {"line1": "1 31032U 99025BEA 25338.71323391  .00003865  00000+0  23507-2 0  9994", "line2": "2 31032  99.4003 347.2894 0138704 217.9288 197.4337 14.02151331948694"}}, "geometry": {"type": "Point", "coordinates": [19.51365429274268, -72.31170977661169]}}, {"type": "Feature", "properties": {"norad_id": 31033, "name": "FENGYUN 1C DEB", "group": "fengyun-1c-debris", "lat": 47.882713764584715, "lon": -51.263907319448435, "alt_km": 780.1113089625196, "timestamp": "2025-12-05T14:45:15.579135+00:00", "meta": {"OBJECT_NAME": "FENGYUN 1C DEB", "OBJECT_ID": "1999-025BEB", "EPOCH": "2025-12-02T16:40:35.561856", "MEAN_MOTION": 14.27435794, "ECCENTRICITY": 0.01537694, "INCLINATION": 98.4374, "RA_OF_ASC_NODE": 315.3656, "ARG_OF_PERICENTER": 139.8309, "MEAN_ANOMALY": 34.404, "EPHEMERIS_TYPE": 0, "CLASSIFICATION_TYPE": "U", "NORAD_CAT_ID": 31033, "ELEMENT_SET_NO": 999, "REV_AT_EPOCH": 97202, "BSTAR": 0.00021496752, "MEAN_MOTION_DOT": 5.55e-06, "MEAN_MOTION_DDOT": 0}, "tle": {"line1": "1 31033U 99025BEB 25336.69485604  .00000555  00000+0  21497-3 0  9996", "line2": "2 31033  98.4374 315.3656 0153769 139.8309  34.4040 14.27435794972021"}}, "geometry": {"type": "Point", "coordinates": [-51.263907319448435, 47.882713764584715]}}, {"type": "Feature", "properties": {"norad_id": 31036, "name": "FENGYUN 1C DEB", "group": "fengyun-1c-debris", "lat": 26.93560878662119, "lon": 81.09776774243434, "alt_km": 745.3774273114032, "timestamp": "2025-12-05T14:45:15.579146+00:00", "meta": {"OBJECT_NAME": "FENGYUN 1C DEB", "OBJECT_ID": "1999-025BEE", "EPOCH": "2025-12-03T13:12:49.281696", "MEAN_MOTION": 14.49043475, "ECCENTRICITY": 0.01376283, "INCLINATION": 98.9154, "RA_OF_ASC_NODE": 83.4924, "ARG_OF_PERICENTER": 292.3904, "MEAN_ANOMALY": 131.6493, "EPHEMERIS_TYPE": 0, "CLASSIFICATION_TYPE": "U", "NORAD_CAT_ID": 31036, "ELEMENT_SET_NO": 999, "REV_AT_EPOCH": 57174, "BSTAR": 0.00031335211, "MEAN_MOTION_DOT": 1.283e-05, "MEAN_MOTION_DDOT": 0}, "tle": {"line1": "1 31036U 99025BEE 25337.55057039  .00001283  00000+0  31335-3 0  9993", "line2": "2 31036  98.9154  83.4924 0137628 292.3904 131.6493 14.49043475571749"}}, "geometry": {"type": "Point", "coordinates": [81.09776774243434, 26.93560878662119]}}, {"type": "Feature", "properties": {"norad_id": 31038, "name": "FENGYUN 1C DEB", "group": "fengyun-1c-debris", "lat": -80.83518324329854, "lon": 163.45956407220473, "alt_km": 690.049286605351, "timestamp": "2025-12-05T14:45:15.579155+00:00", "meta": {"OBJECT_NAME": "FENGYUN 1C DEB", "OBJECT_ID": "1999-025BEG", "EPOCH": "2025-12-02T04:07:32.187648", "MEAN_MOTION": 14.4574661, "ECCENTRICITY": 0.00840344, "INCLINATION": 99.0146, "RA_OF_ASC_NODE": 59.5324, "ARG_OF_PERICENTER": 260.1378, "MEAN_ANOMALY": 99.0316, "EPHEMERIS_TYPE": 0, "CLASSIFICATION_TYPE": "U", "NORAD_CAT_ID": 31038, "ELEMENT_SET_NO": 999, "REV_AT_EPOCH": 98082, "BSTAR": 0.00073536601, "MEAN_MOTION_DOT": 2.669e-05, "MEAN_MOTION_DDOT": 0}, "tle": {"line1": "1 31038U 99025BEG 25336.17190032  .00002669  00000+0  73537-3 0  9992", "line2": "2 31038  99.0146  59.5324 0084034 260.1378  99.0316 14.45746610980823"}}, "geometry": {"type": "Point", "coordinates": [163.45956407220473, -80.83518324329854]}}]}